[
    {
        "Altitude(m)": 559898.8038332651,
        "Argument of Periapsis(deg)": 0.013245982221427002,
        "Eccentricity": 0.0,
        "Inclination(deg)": 53.0,
        "Latitude(deg)": 53.14499521751424,
        "Longitude(deg)": -97.76187423304964,
        "Mean Anomaly(deg)": -270.72591426484485,
        "RAAN(deg)": 274.980286737056,
        "Satellite Name": "Starlink Shell 1 1214",
        "Satellite Number": 1214,
        "Semi-Major Axis(m)": 6931778.249405717,
        "Time(s)": 380
    },
    {
        "Altitude(m)": 559900.1956493596,
        "Argument of Periapsis(deg)": 0.013594560700938237,
        "Eccentricity": 0.0,
        "Inclination(deg)": 53.0,
        "Latitude(deg)": 53.150794099130344,
        "Longitude(deg)": -96.76094895524147,
        "Mean Anomaly(deg)": -270.09908306128807,
        "RAAN(deg)": 274.97976796697856,
        "Satellite Name": "Starlink Shell 1 1214",
        "Satellite Number": 1214,
        "Semi-Major Axis(m)": 6931778.249405717,
        "Time(s)": 390
    },
    {
        "Altitude(m)": 559899.5184481762,
        "Argument of Periapsis(deg)": 0.013943139180449475,
        "Eccentricity": 0.0,
        "Inclination(deg)": 53.0,
        "Latitude(deg)": 53.1474762371151,
        "Longitude(deg)": -95.75996384152505,
        "Mean Anomaly(deg)": -269.47225185773135,
        "RAAN(deg)": 274.9792491969011,
        "Satellite Name": "Starlink Shell 1 1214",
        "Satellite Number": 1214,
        "Semi-Major Axis(m)": 6931778.249405717,
        "Time(s)": 400
    },
    {
        "Altitude(m)": 559896.7726723724,
        "Argument of Periapsis(deg)": 0.014291717659960712,
        "Eccentricity": 0.0,
        "Inclination(deg)": 53.0,
        "Latitude(deg)": 53.13504411672137,
        "Longitude(deg)": -94.75935953889856,
        "Mean Anomaly(deg)": -268.8454206541747,
        "RAAN(deg)": 274.97873042682363,
        "Satellite Name": "Starlink Shell 1 1214",
        "Satellite Number": 1214,
        "Semi-Major Axis(m)": 6931778.249405717,
        "Time(s)": 410
    },
    {
        "Altitude(m)": 559891.9600052681,
        "Argument of Periapsis(deg)": 0.014640296139471948,
        "Eccentricity": 0.0,
        "Inclination(deg)": 53.0,
        "Latitude(deg)": 53.11350704073589,
        "Longitude(deg)": -93.75957605069355,
        "Mean Anomaly(deg)": -268.21858945061797,
        "RAAN(deg)": 274.9782116567461,
        "Satellite Name": "Starlink Shell 1 1214",
        "Satellite Number": 1214,
        "Semi-Major Axis(m)": 6931778.249405717,
        "Time(s)": 420
    },
    {
        "Altitude(m)": 559885.0833700036,
        "Argument of Periapsis(deg)": 0.014988874618983185,
        "Eccentricity": 0.0,
        "Inclination(deg)": 53.0,
        "Latitude(deg)": 53.08288109517488,
        "Longitude(deg)": -92.76105091192112,
        "Mean Anomaly(deg)": -267.59175824706125,
        "RAAN(deg)": 274.97769288666865,
        "Satellite Name": "Starlink Shell 1 1214",
        "Satellite Number": 1214,
        "Semi-Major Axis(m)": 6931778.249405717,
        "Time(s)": 430
    },
    {
        "Altitude(m)": 559876.1469281303,
        "Argument of Periapsis(deg)": 0.015337453098494424,
        "Eccentricity": 0.0,
        "Inclination(deg)": 53.0,
        "Latitude(deg)": 53.04318909014957,
        "Longitude(deg)": -91.76421738285153,
        "Mean Anomaly(deg)": -266.96492704350453,
        "RAAN(deg)": 274.97717411659124,
        "Satellite Name": "Starlink Shell 1 1214",
        "Satellite Number": 1214,
        "Semi-Major Axis(m)": 6931778.249405717,
        "Time(s)": 440
    },
    {
        "Altitude(m)": 559865.1560775655,
        "Argument of Periapsis(deg)": 0.01568603157800566,
        "Eccentricity": 0.0,
        "Inclination(deg)": 53.0,
        "Latitude(deg)": 52.99446047640994,
        "Longitude(deg)": -90.76950418316896,
        "Mean Anomaly(deg)": -266.3380958399478,
        "RAAN(deg)": 274.9766553465137,
        "Satellite Name": "Starlink Shell 1 1214",
        "Satellite Number": 1214,
        "Semi-Major Axis(m)": 6931778.249405717,
        "Time(s)": 450
    },
    {
        "Altitude(m)": 559852.117449974,
        "Argument of Periapsis(deg)": 0.0160346100575169,
        "Eccentricity": 0.0,
        "Inclination(deg)": 53.0,
        "Latitude(deg)": 52.93673123827961,
        "Longitude(deg)": -89.77733375006294,
        "Mean Anomaly(deg)": -265.7112646363911,
        "RAAN(deg)": 274.9761365764362,
        "Satellite Name": "Starlink Shell 1 1214",
        "Satellite Number": 1214,
        "Semi-Major Axis(m)": 6931778.249405717,
        "Time(s)": 460
    },
    {
        "Altitude(m)": 559837.0389075187,
        "Argument of Periapsis(deg)": 0.016383188537028134,
        "Eccentricity": 0.0,
        "Inclination(deg)": 53.0,
        "Latitude(deg)": 52.87004376388888,
        "Longitude(deg)": -88.7881205417238,
        "Mean Anomaly(deg)": -265.0844334328344,
        "RAAN(deg)": 274.9756178063588,
        "Satellite Name": "Starlink Shell 1 1214",
        "Satellite Number": 1214,
        "Semi-Major Axis(m)": 6931778.249405717,
        "Time(s)": 470
    },
    {
        "Altitude(m)": 559819.9295390517,
        "Argument of Periapsis(deg)": 0.01673176701653937,
        "Eccentricity": 0.0,
        "Inclination(deg)": 53.0,
        "Latitude(deg)": 52.79444669379288,
        "Longitude(deg)": -87.80227090710545,
        "Mean Anomaly(deg)": -264.4576022292777,
        "RAAN(deg)": 274.97509903628134,
        "Satellite Name": "Starlink Shell 1 1214",
        "Satellite Number": 1214,
        "Semi-Major Axis(m)": 6931778.249405717,
        "Time(s)": 480
    },
    {
        "Altitude(m)": 559800.7996556557,
        "Argument of Periapsis(deg)": 0.017080345496050607,
        "Eccentricity": 0.0,
        "Inclination(deg)": 53.0,
        "Latitude(deg)": 52.70999474922445,
        "Longitude(deg)": -86.82018150350218,
        "Mean Anomaly(deg)": -263.8307710257209,
        "RAAN(deg)": 274.9745802662038,
        "Satellite Name": "Starlink Shell 1 1214",
        "Satellite Number": 1214,
        "Semi-Major Axis(m)": 6931778.249405717,
        "Time(s)": 490
    },
    {
        "Altitude(m)": 559779.6607856293,
        "Argument of Periapsis(deg)": 0.017428923975561842,
        "Eccentricity": 0.0,
        "Inclination(deg)": 53.0,
        "Latitude(deg)": 52.616748541378406,
        "Longitude(deg)": -85.8422377813189,
        "Mean Anomaly(deg)": -263.2039398221643,
        "RAAN(deg)": 274.97406149612635,
        "Satellite Name": "Starlink Shell 1 1214",
        "Satellite Number": 1214,
        "Semi-Major Axis(m)": 6931778.249405717,
        "Time(s)": 500
    },
    {
        "Altitude(m)": 559756.5256688668,
        "Argument of Periapsis(deg)": 0.01777750245507308,
        "Eccentricity": 0.0,
        "Inclination(deg)": 53.0,
        "Latitude(deg)": 52.51477436324802,
        "Longitude(deg)": -84.86881405455438,
        "Mean Anomaly(deg)": -262.5771086186075,
        "RAAN(deg)": 274.9735427260489,
        "Satellite Name": "Starlink Shell 1 1214",
        "Satellite Number": 1214,
        "Semi-Major Axis(m)": 6931778.249405717,
        "Time(s)": 510
    },
    {
        "Altitude(m)": 559731.408250641,
        "Argument of Periapsis(deg)": 0.018126080934584315,
        "Eccentricity": 0.0,
        "Inclination(deg)": 53.0,
        "Latitude(deg)": 52.404143965639165,
        "Longitude(deg)": -83.90027213601813,
        "Mean Anomaly(deg)": -261.95027741505083,
        "RAAN(deg)": 274.9730239559714,
        "Satellite Name": "Starlink Shell 1 1214",
        "Satellite Number": 1214,
        "Semi-Major Axis(m)": 6931778.249405717,
        "Time(s)": 520
    },
    {
        "Altitude(m)": 559704.3236747902,
        "Argument of Periapsis(deg)": 0.018474659414095554,
        "Eccentricity": 0.0,
        "Inclination(deg)": 53.0,
        "Latitude(deg)": 52.28493431908291,
        "Longitude(deg)": -82.93696005408192,
        "Mean Anomaly(deg)": -261.3234462114941,
        "RAAN(deg)": 274.97250518589397,
        "Satellite Name": "Starlink Shell 1 1214",
        "Satellite Number": 1214,
        "Semi-Major Axis(m)": 6931778.249405717,
        "Time(s)": 530
    },
    {
        "Altitude(m)": 559675.288276334,
        "Argument of Periapsis(deg)": 0.018823237893606792,
        "Eccentricity": 0.0,
        "Inclination(deg)": 53.0,
        "Latitude(deg)": 52.157227363341214,
        "Longitude(deg)": -81.97921236611693,
        "Mean Anomaly(deg)": -260.69661500793734,
        "RAAN(deg)": 274.97198641581645,
        "Satellite Name": "Starlink Shell 1 1214",
        "Satellite Number": 1214,
        "Semi-Major Axis(m)": 6931778.249405717,
        "Time(s)": 540
    },
    {
        "Altitude(m)": 559644.3195735058,
        "Argument of Periapsis(deg)": 0.019171816373118027,
        "Eccentricity": 0.0,
        "Inclination(deg)": 53.0,
        "Latitude(deg)": 52.02110974648391,
        "Longitude(deg)": -81.02734904626973,
        "Mean Anomaly(deg)": -260.0697838043807,
        "RAAN(deg)": 274.971467645739,
        "Satellite Name": "Starlink Shell 1 1214",
        "Satellite Number": 1214,
        "Semi-Major Axis(m)": 6931778.249405717,
        "Time(s)": 550
    },
    {
        "Altitude(m)": 559611.4362591858,
        "Argument of Periapsis(deg)": 0.019520394852629266,
        "Eccentricity": 0.0,
        "Inclination(deg)": 53.0,
        "Latitude(deg)": 51.87667255513781,
        "Longitude(deg)": -80.08167445960152,
        "Mean Anomaly(deg)": -259.44295260082396,
        "RAAN(deg)": 274.9709488756616,
        "Satellite Name": "Starlink Shell 1 1214",
        "Satellite Number": 1214,
        "Semi-Major Axis(m)": 6931778.249405717,
        "Time(s)": 560
    }
]